QIANFAN-60              
1 62790U 25016F   26024.88516676  .00000151  00000+0  21576-3 0  9999
2 62790  88.9736  98.6148 0015206 211.8014 148.2220 13.50987198 53057
QIANFAN-61              
1 62791U 25016G   26024.91812858  .00000142  00000+0  20164-3 0  9997
2 62791  88.9803  98.8038 0014155 210.5803 149.4525 13.50988563 53077
QIANFAN-62              
1 62792U 25016H   26024.92224748  .00000145  00000+0  20664-3 0  9992
2 62792  88.9750  98.6484 0015521 211.5908 148.4313 13.50991182 53061
QIANFAN-63              
1 62793U 25016J   26024.87285591  .00000146  00000+0  20718-3 0  9991
2 62793  88.9757  98.6079 0015402 217.3101 142.6981 13.50989415 53092
QIANFAN-64              
1 62794U 25016K   26024.91400236  .00000140  00000+0  19877-3 0  9990
2 62794  88.9743  98.5719 0013582 208.8443 151.1958 13.50987900 53095
QIANFAN-65              
1 62795U 25016L   26024.90994639  .00000131  00000+0  18459-3 0  9990
2 62795  88.9740  98.5969 0013376 210.5158 149.5216 13.50986585 53078
QIANFAN-66              
1 62796U 25016M   26024.86462369  .00000152  00000+0  21738-3 0  9993
2 62796  88.9759  98.5801 0014627 206.7441 153.2958 13.50991405 53113
QIANFAN-67              
1 62797U 25016N   26024.86873565  .00000151  00000+0  21579-3 0  9990
2 62797  88.9750  98.6011 0014360 213.8122 146.2115 13.50995708 53081
QIANFAN-68              
1 62798U 25016P   26024.86052841  .00000147  00000+0  20874-3 0  9999
2 62798  88.9753  98.6487 0014475 212.0327 147.9946 13.50987572 53065
QIANFAN-69              
1 62799U 25016Q   26024.87697625  .00000146  00000+0  20706-3 0  9999
2 62799  88.9732  98.5071 0015171 213.5020 146.5173 13.50987951 53104
QIANFAN-70              
1 62800U 25016R   26024.89348373  .00000153  00000+0  21772-3 0  9999
2 62800  88.9752  98.6530 0015107 203.4076 156.6389 13.50991749 53064
QIANFAN-71              
1 62801U 25016S   26024.88929105  .00000155  00000+0  22177-3 0  9999
2 62801  88.9747  98.6303 0014974 217.0938 142.9179 13.50991089 53068
QIANFAN-72              
1 62802U 25016T   26024.90573942  .00000149  00000+0  21178-3 0  9990
2 62802  88.9737  98.6378 0017990 225.8130 134.1543 13.50991062 53050
QIANFAN-73              
1 63159U 25046A   26024.85879339  .00000296  00000+0  43961-3 0  9999
2 63159  88.9796 315.5677 0015715   6.2429 353.8915 13.50994006 53233
QIANFAN-74              
1 63160U 25046B   26024.91635334  .00000294  00000+0  43744-3 0  9990
2 63160  88.9796 315.4506 0001831  68.8621 291.2726 13.50991355 53304
QIANFAN-75              
1 63161U 25046C   26024.90349470  .00000145  00000+0  20583-3 0  9994
2 63161  88.9798 315.6862 0017012   8.5019 351.6417 13.50989984 53172
QIANFAN-76              
1 63162U 25046D   26024.90011880  .00000307  00000+0  45627-3 0  9992
2 63162  88.9796 315.6668 0014602  10.0574 350.0867 13.50996983 53181
QIANFAN-77              
1 63163U 25046E   26024.90396064  .00000728  00000+0  52075-3 0  9995
2 63163  88.9795 313.3197 0013664 313.5643  46.4398 13.96136735 54477
QIANFAN-78              
1 63164U 25046F   26024.86697257  .00000307  00000+0  45735-3 0  9997
2 63164  88.9795 315.5339 0016035  11.6496 348.5023 13.50995992 53251
QIANFAN-79              
1 63165U 25046G   26024.89564335  .00000305  00000+0  45337-3 0  9997
2 63165  88.9799 315.6401 0015697  10.1038 350.0426 13.50993058 53207
QIANFAN-80              
1 63166U 25046H   26024.91216312  .00000309  00000+0  45908-3 0  9998
2 63166  88.9797 315.3442 0014769  14.4040 345.7529 13.50995836 53365
QIANFAN-81              
1 63167U 25046J   26024.88975358  .00000229  00000+0  33662-3 0  9992
2 63167  88.9795 315.4140 0015501   4.0607 356.0667 13.50967565 53310
QIANFAN-82              
1 63168U 25046K   26024.92463889  .00000295  00000+0  43737-3 0  9996
2 63168  88.9797 315.4547 0013823  11.3950 348.7512 13.50994914 53305
QIANFAN-83              
1 63169U 25046L   26024.89710384  .00000373  00000+0  46788-3 0  9994
2 63169  88.9797 315.1493 0014523 354.8862   5.2144 13.61998754 53470
QIANFAN-84              
1 63170U 25046M   26024.87804902  .00000293  00000+0  43541-3 0  9999
2 63170  88.9796 315.5919 0016671   6.9065 353.2313 13.51004335 53223
QIANFAN-85              
1 63171U 25046N   26024.87513638  .00000286  00000+0  42434-3 0  9995
2 63171  88.9796 315.4639 0014159  10.2775 349.8663 13.50993704 53299
QIANFAN-86              
1 63172U 25046P   26024.88345141  .00000301  00000+0  44803-3 0  9999
2 63172  88.9798 315.3262 0012175  15.4161 344.7359 13.50995618 53376
QIANFAN-87              
1 63173U 25046Q   26024.85485207  .00000297  00000+0  44178-3 0  9994
2 63173  88.9794 315.4392 0012675  10.7594 349.3826 13.50993134 53305
QIANFAN-88              
1 63174U 25046R   26024.87098945  .00000300  00000+0  44592-3 0  9991
2 63174  88.9797 315.3931 0013322  17.9910 342.1710 13.50987768 53330
QIANFAN-89              
1 63175U 25046S   26024.90799310  .00000307  00000+0  45644-3 0  9996
2 63175  88.9798 315.5783 0017403   7.3840 352.7564 13.50964943 53231
QIANFAN-90              
1 63176U 25046T   26024.86267190  .00000297  00000+0  44131-3 0  9996
2 63176  88.9798 315.5554 0014292   7.2914 352.8442 13.50966336 53247
QIANFAN-91              
1 66033U 25233A   26024.89539907  .00000069  00000+0  88400-4 0  9995
2 66033  88.9914  57.7110 0001869  89.6207 270.5159 13.50991054 13837
QIANFAN-92              
1 66034U 25233B   26024.16276649 -.02097656  00000+0 -35842+1 0  9997
2 66034  88.9890  57.7794 0004940 247.6455 112.4172 13.48989690 13731
QIANFAN-93              
1 66035U 25233C   26024.91185638  .00000087  00000+0  11577-3 0  9998
2 66035  88.9924  57.7177 0001931  89.8251 270.3121 13.50993941 13838
QIANFAN-94              
1 66036U 25233D   26024.45681918  .00000129  00000+0  16626-3 0  9997
2 66036  88.9925  57.6724 0014204 266.5713  93.3816 13.56504062 13822
QIANFAN-95              
1 66037U 25233E   26024.91950473  .00000024  00000+0  94489-5 0  9993
2 66037  88.9921  57.2458 0011239 261.4955  98.4942 13.87071710 14095
QIANFAN-96              
1 66038U 25233F   26024.85836331  .00000062  00000+0  78064-4 0  9995
2 66038  88.9916  57.7256 0001812  88.8103 271.3255 13.50991463 13828
QIANFAN-97              
1 66039U 25233G   26024.91598407  .00000046  00000+0  52602-4 0  9994
2 66039  88.9919  57.6990 0001885  89.9495 270.1872 13.50992796 13846
QIANFAN-98              
1 66040U 25233H   26024.89620799  .00000113  00000+0  11918-3 0  9992
2 66040  88.9909  57.4586 0013672 259.7480 100.2139 13.67870457 13974
QIANFAN-99              
1 66041U 25233J   26024.92831829  .00000066  00000+0  83962-4 0  9991
2 66041  88.9920  57.7008 0001868 102.4134 257.7226 13.50992677 13846
QIANFAN-100             
1 66042U 25233K   26024.92008467  .00000051  00000+0  59788-4 0  9999
2 66042  88.9930  57.6127 0001917  89.5187 270.6184 13.50993965 13890
QIANFAN-101             
1 66043U 25233L   26024.87072677  .00000392  00000+0  15597-3 0  9995
2 66043  88.9919  57.0517 0012652 250.7283 109.2542 14.26700875 14191
QIANFAN-102             
1 66044U 25233M   26024.90176881  .00000064  00000+0  71868-4 0  9992
2 66044  88.9917  57.6251 0012967 271.3626  88.6044 13.57813084 13882
QIANFAN-103             
1 66045U 25233N   26024.87062433  .00000055  00000+0  67246-4 0  9991
2 66045  88.9920  57.7108 0001923  89.1865 270.9507 13.50987602 13835
QIANFAN-104             
1 66046U 25233P   26022.89934271 -.02108639  00000+0 -31683+1 0  9993
2 66046  88.9924  57.8174 0014249 269.5626  90.3895 13.57154121 13628
QIANFAN-105             
1 66047U 25233Q   26021.71016019  .00000167  00000+0  15207-3 0  9995
2 66047  88.9943  57.7828 0014222 267.1530  92.8009 13.78552380 13541
QIANFAN-106             
1 66048U 25233R   26024.87895160  .00000012  00000+0 -55335-6 0  9997
2 66048  88.9906  57.6876 0001967 104.2095 255.9275 13.50993209 13841
QIANFAN-107             
1 66049U 25233S   26024.88713498  .00000059  00000+0  73037-4 0  9999
2 66049  88.9922  57.6965 0001937  90.3748 269.7626 13.50990594 13843
QIANFAN-108             
1 66050U 25233T   26023.55856598 -.02080112  00000+0 -35571+1 0  9992
2 66050  88.9851  57.8378 0006297 327.2737  32.8022 13.48900487 13668
